     2              NAVIGATION DATA                         RINEX VERSION / TYPE
CCRINEXN V1.6.0 UX  CDDIS               05-NOV-24 17:53     PGM / RUN BY / DATE 
IGS BROADCAST EPHEMERIS FILE                                COMMENT             
    0.4005D-07  0.1490D-07 -0.1192D-06  0.5960D-07          ION ALPHA           
    0.1516D+06 -0.4915D+05 -0.1311D+06 -0.1966D+06          ION BETA            
    0.186264514923D-08 0.444089209850D-14   405504     2339 DELTA-UTC: A0,A1,T,W
    18                                                      LEAP SECONDS        
                                                            END OF HEADER       
 3 24 11  5 14  0  0.0 0.591440591961D-03 0.108002495836D-10 0.000000000000D+00
    0.110000000000D+02-0.996875000000D+02 0.386016079119D-08-0.141596070278D+01
   -0.504218041897D-05 0.566710974090D-02 0.843778252602D-05 0.515363549232D+04
    0.223200000000D+06 0.707805156708D-07 0.193016495592D+00 0.115483999252D-06
    0.987109246342D+00 0.230906250000D+03 0.116266933298D+01-0.763710383031D-08
    0.133219834855D-09 0.100000000000D+01 0.233900000000D+04 0.000000000000D+00
    0.200000000000D+01 0.000000000000D+00 0.139698386192D-08 0.110000000000D+02
    0.221136000000D+06 0.400000000000D+01 0.000000000000D+00 0.000000000000D+00
 6 24 11  5 14  0  0.0-0.915359705687D-04-0.287627699436D-10 0.000000000000D+00
    0.520000000000D+02-0.345625000000D+02 0.394909306701D-08 0.552639511540D-01
   -0.180117785931D-05 0.322037853766D-02 0.139884650707D-05 0.515372637749D+04
    0.223200000000D+06-0.316649675369D-07-0.842399274180D+00-0.707805156708D-07
    0.989411823808D+00 0.363062500000D+03-0.769048788438D+00-0.813783897366D-08
   -0.142863093678D-10 0.100000000000D+01 0.233900000000D+04 0.000000000000D+00
    0.200000000000D+01 0.000000000000D+00 0.372529000000D-08 0.520000000000D+02
    0.216030000000D+06 0.400000000000D+01 0.000000000000D+00 0.000000000000D+00
 7 24 11  5 14  0  0.0-0.220919027925D-04 0.261479726760D-11 0.000000000000D+00
    0.230000000000D+02-0.940625000000D+01 0.520128808310D-08-0.832712307570D+00
   -0.357627868652D-06 0.188118814258D-01 0.606290996075D-05 0.515358545876D+04
    0.223200000000D+06-0.502914190292D-07 0.228202001438D+01 0.422820448875D-06
    0.950200096768D+00 0.256968750000D+03-0.209549332767D+01-0.841320758672D-08
   -0.335371112410D-09 0.100000000000D+01 0.233900000000D+04 0.000000000000D+00
    0.200000000000D+01 0.000000000000D+00-0.107102100000D-07 0.230000000000D+02
    0.216090000000D+06 0.400000000000D+01 0.000000000000D+00 0.000000000000D+00
 8 24 11  5 14  0  0.0 0.405192840844D-03 0.106865627458D-10 0.000000000000D+00
    0.820000000000D+02 0.113843750000D+03 0.452125975719D-08 0.196436076111D+01
    0.590644776821D-05 0.989602319896D-02 0.562332570553D-05 0.515371320152D+04
    0.223200000000D+06-0.162050127983D-06-0.194443726223D+01 0.782310962677D-07
    0.950600452096D+00 0.266968750000D+03 0.374783478848D+00-0.816748306560D-08
    0.285726187357D-10 0.100000000000D+01 0.233900000000D+04 0.000000000000D+00
    0.282842707634D+01 0.000000000000D+00 0.465661287308D-08 0.820000000000D+02
    0.216075000000D+06 0.400000000000D+01 0.000000000000D+00 0.000000000000D+00
10 24 11  5 14  0  0.0-0.184446107596D-03-0.140971678775D-10 0.000000000000D+00
    0.122000000000D+03-0.110718750000D+03 0.372944106048D-08-0.236030970654D+01
   -0.596046447754D-05 0.991488504224D-02 0.775046646595D-05 0.515368970299D+04
    0.223200000000D+06 0.128522515297D-06 0.190480853332D+00-0.109896063805D-06
    0.986744325816D+00 0.242218750000D+03-0.236617481138D+01-0.750316967999D-08
    0.208580116771D-09 0.100000000000D+01 0.233900000000D+04 0.000000000000D+00
    0.282842707634D+01 0.000000000000D+00 0.232830643654D-08 0.122000000000D+03
    0.216067000000D+06 0.400000000000D+01 0.000000000000D+00 0.000000000000D+00
11 24 11  5 14  0  0.0-0.748594757170D-03-0.204636307899D-11 0.000000000000D+00
    0.154000000000D+03-0.312500000000D+02 0.450375902821D-08 0.107162641400D+01
   -0.181235373020D-05 0.173903489485D-02 0.100024044514D-05 0.515356939507D+04
    0.223200000000D+06-0.614672899246D-07-0.812939901798D+00-0.186264514923D-08
    0.966072415605D+00 0.361125000000D+03-0.242799205328D+01-0.835106214097D-08
   -0.350014579512D-10 0.100000000000D+01 0.233900000000D+04 0.000000000000D+00
    0.200000000000D+01 0.000000000000D+00-0.884756400000D-08 0.410000000000D+03
    0.216060000000D+06 0.400000000000D+01 0.000000000000D+00 0.000000000000D+00
12 24 11  5 14  0  0.0-0.550041906536D-03-0.261479726760D-11 0.000000000000D+00
    0.720000000000D+02 0.580312500000D+02 0.430339353933D-08-0.154848982360D+01
    0.298395752907D-05 0.881032890175D-02 0.996887683868D-05 0.515357259178D+04
    0.223200000000D+06 0.540167093277D-07-0.288547275655D+01 0.203028321266D-06
    0.961840181899D+00 0.188031250000D+03 0.146532806125D+01-0.772353600199D-08
   -0.518950187787D-09 0.100000000000D+01 0.233900000000D+04 0.000000000000D+00
    0.200000000000D+01 0.000000000000D+00-0.125728547573D-07 0.720000000000D+02
    0.222083000000D+06 0.400000000000D+01 0.000000000000D+00 0.000000000000D+00
13 24 11  5 14  0  0.0 0.684720464051D-03 0.159161572810D-11 0.000000000000D+00
    0.570000000000D+02-0.200625000000D+02 0.447447209401D-08 0.164496289993D+01
   -0.105053186417D-05 0.874225096777D-02 0.800564885140D-05 0.515368675804D+04
    0.223200000000D+06-0.253319740295D-06 0.137737017903D+01-0.186264514923D-08
    0.972010215761D+00 0.232750000000D+03 0.973784900701D+00-0.780532512312D-08
    0.491449042254D-09 0.100000000000D+01 0.233900000000D+04 0.000000000000D+00
    0.200000000000D+01 0.000000000000D+00-0.116415321827D-07 0.570000000000D+02
    0.216068000000D+06 0.400000000000D+01 0.000000000000D+00 0.000000000000D+00
14 24 11  5 14  0  0.0 0.533250626177D-03 0.818545231596D-11 0.000000000000D+00
    0.630000000000D+02 0.540312500000D+02 0.456054710795D-08-0.170211421875D+01
    0.280514359474D-05 0.497956818435D-02 0.970065593720D-05 0.515369802284D+04
    0.223200000000D+06-0.186264514923D-07-0.293244216700D+01-0.987201929092D-07
    0.945170362048D+00 0.186718750000D+03-0.285659882058D+01-0.779103881375D-08
   -0.395730769489D-09 0.100000000000D+01 0.233900000000D+04 0.000000000000D+00
    0.200000000000D+01 0.000000000000D+00-0.791624188423D-08 0.575000000000D+03
    0.220098000000D+06 0.400000000000D+01 0.000000000000D+00 0.000000000000D+00
15 24 11  5 14  0  0.0 0.224175862968D-03 0.454747350886D-11 0.000000000000D+00
    0.650000000000D+02-0.420625000000D+02 0.524128974933D-08 0.948197301938D+00
   -0.212155282497D-05 0.161537702661D-01 0.916048884392D-05 0.515372147369D+04
    0.223200000000D+06-0.311061739922D-06 0.107689974213D+01 0.223517417908D-07
    0.936720222454D+00 0.196625000000D+03 0.137468935093D+01-0.841856495274D-08
    0.458233372974D-09 0.100000000000D+01 0.233900000000D+04 0.000000000000D+00
    0.200000000000D+01 0.000000000000D+00-0.102445483208D-07 0.650000000000D+02
    0.216069000000D+06 0.400000000000D+01 0.000000000000D+00 0.000000000000D+00
16 24 11  5 14  0  0.0-0.136238522828D-03 0.989075488178D-11 0.000000000000D+00
    0.420000000000D+02 0.534687500000D+02 0.416660212713D-08 0.294292191233D+01
    0.265426933765D-05 0.141710141907D-01 0.102855265141D-04 0.515364941597D+04
    0.223200000000D+06 0.260770320892D-07-0.286781365298D+01-0.128522515297D-06
    0.961231940060D+00 0.179343750000D+03 0.850749917789D+00-0.751888462030D-08
   -0.398945189097D-09 0.100000000000D+01 0.233900000000D+04 0.000000000000D+00
    0.200000000000D+01 0.000000000000D+00-0.102445483208D-07 0.420000000000D+02
    0.216070000000D+06 0.400000000000D+01 0.000000000000D+00 0.000000000000D+00
17 24 11  5 14  0  0.0 0.570050906390D-03-0.140971678775D-10 0.000000000000D+00
    0.119000000000D+03 0.121500000000D+03 0.405802617594D-08 0.189162961344D+01
    0.621005892754D-05 0.135434782133D-01 0.439770519733D-05 0.515357479096D+04
    0.223200000000D+06 0.296160578728D-06-0.184713570176D+01-0.353902578354D-07
    0.966333774698D+00 0.292093750000D+03-0.127643597938D+01-0.781318259327D-08
    0.122862260564D-09 0.100000000000D+01 0.233900000000D+04 0.000000000000D+00
    0.200000000000D+01 0.000000000000D+00-0.111758700000D-07 0.119000000000D+03
    0.217050000000D+06 0.400000000000D+01 0.000000000000D+00 0.000000000000D+00
18 24 11  5 14  0  0.0-0.659870449454D-03-0.682121026330D-12 0.000000000000D+00
    0.122000000000D+03-0.225937500000D+02 0.431410827135D-08-0.622750065297D-01
   -0.110641121864D-05 0.479007326066D-02 0.146031379700D-05 0.515372684097D+04
    0.223200000000D+06 0.447034835815D-07-0.840627140569D+00 0.745058059692D-07
    0.974290812883D+00 0.357218750000D+03-0.295798579045D+01-0.828141638280D-08
    0.160720980388D-10 0.100000000000D+01 0.233900000000D+04 0.000000000000D+00
    0.200000000000D+01 0.000000000000D+00-0.838190317154D-08 0.890000000000D+03
    0.216071000000D+06 0.400000000000D+01 0.000000000000D+00 0.000000000000D+00
19 24 11  5 14  0  0.0 0.559162348509D-03 0.454747350886D-11 0.000000000000D+00
    0.550000000000D+02 0.128750000000D+03 0.409552773803D-08-0.251038848127D+01
    0.683963298798D-05 0.997792847920D-02 0.436604022980D-05 0.515375664139D+04
    0.223200000000D+06-0.126659870148D-06-0.180287908271D+01 0.838190317154D-07
    0.965521192462D+00 0.299406250000D+03 0.267417401719D+01-0.793640201157D-08
    0.190722230061D-09 0.100000000000D+01 0.233900000000D+04 0.000000000000D+00
    0.200000000000D+01 0.000000000000D+00-0.153668200000D-07 0.550000000000D+02
    0.221040000000D+06 0.400000000000D+01 0.000000000000D+00 0.000000000000D+00
